CS1                     
1 49261U 21088B   26068.75173904  .00015722  00000+0  51176-3 0  9998
2 49261  97.3882 132.1684 0014129  78.0335 282.2490 15.31848439245182
STARLINK-31003          
1 58520U 23191N   26068.41201170 -.00001336  00000+0 -39042-4 0  9990
2 58520  43.0017 104.5913 0000498 273.2566  86.8229 15.27576370125435
